start=new Date('2022-07-11T00:00:00.000Z').valueOf();
sats=[{"OBJECT_ID":"2021-036AC","OBJECT_TYPE":"PAYLOAD","LAUNCH_DATE":"2021-04-29","RCS_SIZE":"LARGE","REF_FRAME":"TEME","SEMIMAJOR_AXIS":"6925.361","PERIOD":"95.592","CENTER_NAME":"EARTH","ELEMENT_SET_NO":"999","COUNTRY_CODE":"US","INCLINATION":"53.0535","TIME_SYSTEM":"UTC","FILE":"3511318","REV_AT_EPOCH":"6652","TLE_LINE2":"2 48302  53.0535 337.4668 0001104  71.4430 288.6679 15.06396038 66528","OBJECT_NAME":"STARLINK-2556","GP_ID":"207874873","MEAN_ELEMENT_THEORY":"SGP4","MEAN_ANOMALY":"288.6679","RA_OF_ASC_NODE":"337.4668","MEAN_MOTION":"15.06396038","MEAN_MOTION_DOT":"0.00001368","APOAPSIS":"547.990","PERIAPSIS":"546.461","ECCENTRICITY":"0.00011040","MEAN_MOTION_DDOT":"0.0000000000000","SITE":"AFETR","DECAY_DATE":null,"TLE_LINE1":"1 48302U 21036AC  22191.83753498  .00001368  00000-0  11070-3 0  9991","NORAD_CAT_ID":"48302","EPOCH":"2022-07-10T20:06:03.022272","BSTAR":"0.00011070000000","CLASSIFICATION_TYPE":"U","EPHEMERIS_TYPE":"0","ARG_OF_PERICENTER":"71.4430"},{"NORAD_CAT_ID":"48303","TLE_LINE1":"1 48303U 21036AD  22191.83289839  .00003263  00000-0  23788-3 0  9990","DECAY_DATE":null,"SITE":"AFETR","MEAN_MOTION_DDOT":"0.0000000000000","ARG_OF_PERICENTER":"72.4943","EPHEMERIS_TYPE":"0","BSTAR":"0.00023788000000","CLASSIFICATION_TYPE":"U","EPOCH":"2022-07-10T19:59:22.420896","APOAPSIS":"548.290","MEAN_MOTION_DOT":"0.00003263","ECCENTRICITY":"0.00015210","PERIAPSIS":"546.183","MEAN_ELEMENT_THEORY":"SGP4","MEAN_ANOMALY":"287.6213","GP_ID":"207874618","OBJECT_NAME":"STARLINK-2530","MEAN_MOTION":"15.06392428","RA_OF_ASC_NODE":"337.4858","ELEMENT_SET_NO":"999","CENTER_NAME":"EARTH","PERIOD":"95.593","SEMIMAJOR_AXIS":"6925.372","REF_FRAME":"TEME","LAUNCH_DATE":"2021-04-29","RCS_SIZE":"LARGE","OBJECT_TYPE":"PAYLOAD","OBJECT_ID":"2021-036AD","TLE_LINE2":"2 48303  53.0553 337.4858 0001521  72.4943 287.6213 15.06392428 66525","REV_AT_EPOCH":"6652","FILE":"3511318","TIME_SYSTEM":"UTC","INCLINATION":"53.0553","COUNTRY_CODE":"US"},{"OBJECT_ID":"2021-036AE","OBJECT_TYPE":"PAYLOAD","RCS_SIZE":"LARGE","LAUNCH_DATE":"2021-04-29","REF_FRAME":"TEME","PERIOD":"95.592","CENTER_NAME":"EARTH","SEMIMAJOR_AXIS":"6925.345","ELEMENT_SET_NO":"999","INCLINATION":"53.0553","COUNTRY_CODE":"US","TIME_SYSTEM":"UTC","FILE":"3511318","REV_AT_EPOCH":"6710","TLE_LINE2":"2 48304  53.0553 337.5070 0001511  75.7342 284.3815 15.06401027 67104","OBJECT_NAME":"STARLINK-2524","GP_ID":"207873372","MEAN_ANOMALY":"284.3815","MEAN_ELEMENT_THEORY":"SGP4","RA_OF_ASC_NODE":"337.5070","MEAN_MOTION":"15.06401027","MEAN_MOTION_DOT":"0.00001924","APOAPSIS":"548.257","PERIAPSIS":"546.164","ECCENTRICITY":"0.00015110","MEAN_MOTION_DDOT":"0.0000000000000","SITE":"AFETR","DECAY_DATE":null,"TLE_LINE1":"1 48304U 21036AE  22191.83015624  .00001924  00000-0  14799-3 0  9994","NORAD_CAT_ID":"48304","EPOCH":"2022-07-10T19:55:25.499136","BSTAR":"0.00014799000000","CLASSIFICATION_TYPE":"U","ARG_OF_PERICENTER":"75.7342","EPHEMERIS_TYPE":"0"},{"ARG_OF_PERICENTER":"89.7610","EPHEMERIS_TYPE":"0","BSTAR":"0.00007098200000","CLASSIFICATION_TYPE":"U","EPOCH":"2022-07-10T19:48:45.568224","TLE_LINE1":"1 48305U 21036AF  22191.82552741  .00000776  00000-0  70982-4 0  9991","NORAD_CAT_ID":"48305","DECAY_DATE":null,"SITE":"AFETR","MEAN_MOTION_DDOT":"0.0000000000000","ECCENTRICITY":"0.00015370","PERIAPSIS":"546.144","APOAPSIS":"548.273","MEAN_MOTION_DOT":"0.00000776","RA_OF_ASC_NODE":"337.5229","MEAN_MOTION":"15.06401691","MEAN_ANOMALY":"270.3555","MEAN_ELEMENT_THEORY":"SGP4","GP_ID":"207873622","OBJECT_NAME":"STARLINK-2519","TLE_LINE2":"2 48305  53.0569 337.5229 0001537  89.7610 270.3555 15.06401691 67113","FILE":"3511318","REV_AT_EPOCH":"6711","COUNTRY_CODE":"US","INCLINATION":"53.0569","TIME_SYSTEM":"UTC","PERIOD":"95.592","SEMIMAJOR_AXIS":"6925.343","CENTER_NAME":"EARTH","ELEMENT_SET_NO":"999","REF_FRAME":"TEME","LAUNCH_DATE":"2021-04-29","RCS_SIZE":"LARGE","OBJECT_TYPE":"PAYLOAD","OBJECT_ID":"2021-036AF"},{"MEAN_MOTION":"15.06406770","RA_OF_ASC_NODE":"337.5403","OBJECT_NAME":"STARLINK-2523","GP_ID":"207874374","MEAN_ELEMENT_THEORY":"SGP4","MEAN_ANOMALY":"281.8963","TIME_SYSTEM":"UTC","COUNTRY_CODE":"US","INCLINATION":"53.0562","REV_AT_EPOCH":"6652","FILE":"3511318","TLE_LINE2":"2 48306  53.0562 337.5403 0001324  78.2175 281.8963 15.06406770 66521","OBJECT_TYPE":"PAYLOAD","OBJECT_ID":"2021-036AG","RCS_SIZE":"LARGE","LAUNCH_DATE":"2021-04-29","REF_FRAME":"TEME","ELEMENT_SET_NO":"999","SEMIMAJOR_AXIS":"6925.328","PERIOD":"95.592","CENTER_NAME":"EARTH","EPOCH":"2022-07-10T19:44:47.499072","CLASSIFICATION_TYPE":"U","BSTAR":"0.00001632300000","ARG_OF_PERICENTER":"78.2175","EPHEMERIS_TYPE":"0","SITE":"AFETR","MEAN_MOTION_DDOT":"0.0000000000000","DECAY_DATE":null,"NORAD_CAT_ID":"48306","TLE_LINE1":"1 48306U 21036AG  22191.82277198 -.00000038  00000-0  16323-4 0  9993","PERIAPSIS":"546.276","ECCENTRICITY":"0.00013240","MEAN_MOTION_DOT":"-0.00000038","APOAPSIS":"548.110"},{"MEAN_MOTION_DOT":"-0.00002806","APOAPSIS":"548.353","ECCENTRICITY":"0.00015710","PERIAPSIS":"546.177","SITE":"AFETR","MEAN_MOTION_DDOT":"0.0000000000000","NORAD_CAT_ID":"48307","TLE_LINE1":"1 48307U 21036AH  22191.81910914 -.00002806  00000-0 -16962-3 0  9997","DECAY_DATE":null,"EPOCH":"2022-07-10T19:39:31.029696","ARG_OF_PERICENTER":"94.6591","EPHEMERIS_TYPE":"0","BSTAR":"-0.00016962000000","CLASSIFICATION_TYPE":"U","LAUNCH_DATE":"2021-04-29","RCS_SIZE":"LARGE","OBJECT_TYPE":"PAYLOAD","OBJECT_ID":"2021-036AH","ELEMENT_SET_NO":"999","SEMIMAJOR_AXIS":"6925.400","PERIOD":"95.593","CENTER_NAME":"EARTH","REF_FRAME":"TEME","TIME_SYSTEM":"UTC","INCLINATION":"53.0558","COUNTRY_CODE":"US","TLE_LINE2":"2 48307  53.0558 337.5662 0001571  94.6591 265.4577 15.06383079 67113","REV_AT_EPOCH":"6711","FILE":"3511147","GP_ID":"207848544","OBJECT_NAME":"STARLINK-2528","MEAN_ANOMALY":"265.4577","MEAN_ELEMENT_THEORY":"SGP4","MEAN_MOTION":"15.06383079","RA_OF_ASC_NODE":"337.5662"},{"MEAN_MOTION_DDOT":"0.0000000000000","SITE":"AFETR","NORAD_CAT_ID":"48308","TLE_LINE1":"1 48308U 21036AJ  22191.81541444 -.00000103  00000-0  11987-4 0  9996","DECAY_DATE":null,"EPOCH":"2022-07-10T19:34:11.807616","EPHEMERIS_TYPE":"0","ARG_OF_PERICENTER":"59.6178","BSTAR":"0.00001198700000","CLASSIFICATION_TYPE":"U","MEAN_MOTION_DOT":"-0.00000103","APOAPSIS":"548.369","ECCENTRICITY":"0.00016570","PERIAPSIS":"546.074","GP_ID":"207873873","OBJECT_NAME":"STARLINK-2532","MEAN_ELEMENT_THEORY":"SGP4","MEAN_ANOMALY":"300.4975","MEAN_MOTION":"15.06397378","RA_OF_ASC_NODE":"337.5701","LAUNCH_DATE":"2021-04-29","RCS_SIZE":"LARGE","OBJECT_ID":"2021-036AJ","OBJECT_TYPE":"PAYLOAD","ELEMENT_SET_NO":"999","SEMIMAJOR_AXIS":"6925.357","PERIOD":"95.592","CENTER_NAME":"EARTH","REF_FRAME":"TEME","TIME_SYSTEM":"UTC","COUNTRY_CODE":"US","INCLINATION":"53.0561","TLE_LINE2":"2 48308  53.0561 337.5701 0001657  59.6178 300.4975 15.06397378 67118","REV_AT_EPOCH":"6711","FILE":"3511318"},{"REF_FRAME":"TEME","SEMIMAJOR_AXIS":"6925.340","PERIOD":"95.592","CENTER_NAME":"EARTH","ELEMENT_SET_NO":"999","OBJECT_TYPE":"PAYLOAD","OBJECT_ID":"2021-036AK","LAUNCH_DATE":"2021-04-29","RCS_SIZE":"LARGE","FILE":"3511318","REV_AT_EPOCH":"6652","TLE_LINE2":"2 48309  53.0559 337.5984 0001444  87.7068 272.4087 15.06402864 66526","COUNTRY_CODE":"US","INCLINATION":"53.0559","TIME_SYSTEM":"UTC","MEAN_ANOMALY":"272.4087","MEAN_ELEMENT_THEORY":"SGP4","OBJECT_NAME":"STARLINK-2517","GP_ID":"207874123","RA_OF_ASC_NODE":"337.5984","MEAN_MOTION":"15.06402864","APOAPSIS":"548.205","MEAN_MOTION_DOT":"0.00000585","PERIAPSIS":"546.205","ECCENTRICITY":"0.00014440","DECAY_DATE":null,"TLE_LINE1":"1 48309U 21036AK  22191.81173046  .00000585  00000-0  58177-4 0  9991","NORAD_CAT_ID":"48309","MEAN_MOTION_DDOT":"0.0000000000000","SITE":"AFETR","CLASSIFICATION_TYPE":"U","BSTAR":"0.00005817700000","ARG_OF_PERICENTER":"87.7068","EPHEMERIS_TYPE":"0","EPOCH":"2022-07-10T19:28:53.511744"},{"ECCENTRICITY":"0.00013620","PERIAPSIS":"546.295","APOAPSIS":"548.182","MEAN_MOTION_DOT":"0.00000079","EPHEMERIS_TYPE":"0","ARG_OF_PERICENTER":"83.5542","BSTAR":"0.00002417600000","CLASSIFICATION_TYPE":"U","EPOCH":"2022-07-10T17:48:03.518496","NORAD_CAT_ID":"48310","TLE_LINE1":"1 48310U 21036AL  22191.74170739  .00000079  00000-0  24176-4 0  9991","DECAY_DATE":null,"MEAN_MOTION_DDOT":"0.0000000000000","SITE":"AFETR","TLE_LINE2":"2 48310  53.0572 337.9063 0001362  83.5542 276.5602 15.06391931 67100","REV_AT_EPOCH":"6710","FILE":"3511159","TIME_SYSTEM":"UTC","COUNTRY_CODE":"US","INCLINATION":"53.0572","ELEMENT_SET_NO":"999","PERIOD":"95.593","CENTER_NAME":"EARTH","SEMIMAJOR_AXIS":"6925.373","REF_FRAME":"TEME","RCS_SIZE":"LARGE","LAUNCH_DATE":"2021-04-29","OBJECT_TYPE":"PAYLOAD","OBJECT_ID":"2021-036AL","MEAN_MOTION":"15.06391931","RA_OF_ASC_NODE":"337.9063","MEAN_ANOMALY":"276.5602","MEAN_ELEMENT_THEORY":"SGP4","GP_ID":"207848583","OBJECT_NAME":"STARLINK-2536"},{"MEAN_ANOMALY":"264.7968","MEAN_ELEMENT_THEORY":"SGP4","GP_ID":"207874619","OBJECT_NAME":"STARLINK-2534","RA_OF_ASC_NODE":"337.6185","MEAN_MOTION":"15.06395729","CENTER_NAME":"EARTH","PERIOD":"95.592","SEMIMAJOR_AXIS":"6925.362","ELEMENT_SET_NO":"999","REF_FRAME":"TEME","LAUNCH_DATE":"2021-04-29","RCS_SIZE":"LARGE","OBJECT_TYPE":"PAYLOAD","OBJECT_ID":"2021-036AM","TLE_LINE2":"2 48311  53.0550 337.6185 0001446  95.3186 264.7968 15.06395729 66525","FILE":"3511318","REV_AT_EPOCH":"6652","COUNTRY_CODE":"US","INCLINATION":"53.0550","TIME_SYSTEM":"UTC","TLE_LINE1":"1 48311U 21036AM  22191.80435547  .00000232  00000-0  34499-4 0  9990","NORAD_CAT_ID":"48311","DECAY_DATE":null,"SITE":"AFETR","MEAN_MOTION_DDOT":"0.0000000000000","ARG_OF_PERICENTER":"95.3186","EPHEMERIS_TYPE":"0","CLASSIFICATION_TYPE":"U","BSTAR":"0.00003449900000","EPOCH":"2022-07-10T19:18:16.312608","APOAPSIS":"548.228","MEAN_MOTION_DOT":"0.00000232","ECCENTRICITY":"0.00014460","PERIAPSIS":"546.225"}];
